COSMOS 2251 DEB         
1 40227U 93036BVG 17340.72680036  .00004956  00000-0  55257-3 0  9994
2 40227  74.0141 353.6341 0011600 193.4259 166.6614 14.87278268289271
